PICO-02A021             
1 60538U 24149BY  26032.17769579  .00006466  00000+0  50219-3 0  9997
2 60538  97.6811 112.2835 0005480  99.5529 260.6315 15.01659413 79312
ICEYE-X43               
1 60539U 24149BZ  26032.76727163  .00004114  00000+0  34375-3 0  9999
2 60539  97.6930 111.5557 0004743 130.7599 229.4036 14.99055747 79829
HAWK-10A                
1 60540U 24149CA  26032.75029980  .00002211  00000+0  20217-3 0  9998
2 60540  97.7019 110.9696 0004344 147.7179 212.4309 14.96010451 79731
UMBRA-09                
1 60541U 24149CB  26032.80865463  .00014278  00000+0  80483-3 0  9996
2 60541  97.7041 118.1464 0000783 117.7571 242.3739 15.13301447 80218
QPS-SAR-8 (AMATERU-IV)  
1 60542U 24149CC  26032.81451697  .00005993  00000+0  45556-3 0  9994
2 60542  97.6803 113.2034 0003620 178.2096 181.9142 15.02512197 79937
ARCTIC WEATHER SATELLITE
1 60543U 24149CD  26032.88408153  .00001200  00000+0  13068-3 0  9991
2 60543  97.6947 107.1333 0002281 161.8945 198.2355 14.89804151 79153
CAPELLA-15 (ACADIA-5)   
1 60544U 24149CE  26032.75519922  .00003597  00000+0  35638-3 0  9993
2 60544  97.6912 108.9597 0004410 169.5095 190.6218 14.92428286 79658
HAWK-10B                
1 60545U 24149CF  26032.75016210  .00002251  00000+0  20570-3 0  9991
2 60545  97.6942 110.4585 0005610 171.4485 188.6832 14.96011203 79734
ICEYE-X39               
1 60546U 24149CG  26032.74253654  .00003279  00000+0  27606-3 0  9994
2 60546  97.6900 111.5973 0004860 167.9862 192.1478 14.98914259 79828
UMBRA-10                
1 60547U 24149CH  26032.80821122  .00015487  00000+0  87234-3 0  9990
2 60547  97.7056 118.1609 0001569  97.6152 262.5257 15.13307565 80222
ICEYE-X33               
1 60548U 24149CJ  26032.77793496  .00004306  00000+0  34427-3 0  9993
2 60548  97.7074 112.9184 0004764 221.4810 138.6053 15.00743676 79892
ICEYE-X40               
1 60549U 24149CK  26032.80912238  .00001642  00000+0  14640-3 0  9990
2 60549  97.6923 111.4724 0005206 161.0754 199.0663 14.97354083 79812
SATELIOT_1              
1 60550U 24149CL  26032.74025353  .00002197  00000+0  19383-3 0  9993
2 60550  97.6868 110.8910 0007094 161.1629 198.9857 14.97409325 79791
BRO-14                  
1 60551U 24149CM  26032.75166151  .00001863  00000+0  17199-3 0  9999
2 60551  97.6997 110.9291 0006823 178.3615 181.7630 14.95805542 79745
SATELIOT_3              
1 60552U 24149CN  26032.78353494  .00002114  00000+0  18649-3 0  9992
2 60552  97.6957 111.5992 0005330 164.2027 195.9362 14.97472256 79811
BRO-15                  
1 60553U 24149CP  26032.73098242  .00000847  00000+0  80969-4 0  9991
2 60553  97.6928 110.6378 0008141 172.3878 187.7469 14.95797891 79758
