[{"OBJECT_NAME":"PICO-02A021","OBJECT_ID":"2024-149BY","EPOCH":"2026-02-01T04:15:52.916256","MEAN_MOTION":15.01659413,"ECCENTRICITY":0.00054802,"INCLINATION":97.6811,"RA_OF_ASC_NODE":112.2835,"ARG_OF_PERICENTER":99.5529,"MEAN_ANOMALY":260.6315,"EPHEMERIS_TYPE":0,"CLASSIFICATION_TYPE":"U","NORAD_CAT_ID":60538,"ELEMENT_SET_NO":999,"REV_AT_EPOCH":7931,"BSTAR":0.00050218657,"MEAN_MOTION_DOT":6.466e-5,"MEAN_MOTION_DDOT":0},{"OBJECT_NAME":"ICEYE-X43","OBJECT_ID":"2024-149BZ","EPOCH":"2026-02-01T18:24:52.268832","MEAN_MOTION":14.99055747,"ECCENTRICITY":0.0004743,"INCLINATION":97.693,"RA_OF_ASC_NODE":111.5557,"ARG_OF_PERICENTER":130.7599,"MEAN_ANOMALY":229.4036,"EPHEMERIS_TYPE":0,"CLASSIFICATION_TYPE":"U","NORAD_CAT_ID":60539,"ELEMENT_SET_NO":999,"REV_AT_EPOCH":7982,"BSTAR":0.00034375471,"MEAN_MOTION_DOT":4.114e-5,"MEAN_MOTION_DDOT":0},{"OBJECT_NAME":"HAWK-10A","OBJECT_ID":"2024-149CA","EPOCH":"2026-02-01T18:00:25.902720","MEAN_MOTION":14.96010451,"ECCENTRICITY":0.00043449,"INCLINATION":97.7019,"RA_OF_ASC_NODE":110.9696,"ARG_OF_PERICENTER":147.7179,"MEAN_ANOMALY":212.4309,"EPHEMERIS_TYPE":0,"CLASSIFICATION_TYPE":"U","NORAD_CAT_ID":60540,"ELEMENT_SET_NO":999,"REV_AT_EPOCH":7973,"BSTAR":0.000202166,"MEAN_MOTION_DOT":2.211e-5,"MEAN_MOTION_DDOT":0},{"OBJECT_NAME":"UMBRA-09","OBJECT_ID":"2024-149CB","EPOCH":"2026-02-01T19:24:27.760032","MEAN_MOTION":15.13301447,"ECCENTRICITY":7.836e-5,"INCLINATION":97.7041,"RA_OF_ASC_NODE":118.1464,"ARG_OF_PERICENTER":117.7571,"MEAN_ANOMALY":242.3739,"EPHEMERIS_TYPE":0,"CLASSIFICATION_TYPE":"U","NORAD_CAT_ID":60541,"ELEMENT_SET_NO":999,"REV_AT_EPOCH":8021,"BSTAR":0.00080483439,"MEAN_MOTION_DOT":0.00014278,"MEAN_MOTION_DDOT":0},{"OBJECT_NAME":"QPS-SAR-8 (AMATERU-IV)","OBJECT_ID":"2024-149CC","EPOCH":"2026-02-01T19:32:54.266208","MEAN_MOTION":15.02512197,"ECCENTRICITY":0.00036208,"INCLINATION":97.6803,"RA_OF_ASC_NODE":113.2034,"ARG_OF_PERICENTER":178.2096,"MEAN_ANOMALY":181.9142,"EPHEMERIS_TYPE":0,"CLASSIFICATION_TYPE":"U","NORAD_CAT_ID":60542,"ELEMENT_SET_NO":999,"REV_AT_EPOCH":7993,"BSTAR":0.00045556097,"MEAN_MOTION_DOT":5.993e-5,"MEAN_MOTION_DDOT":0},{"OBJECT_NAME":"ARCTIC WEATHER SATELLITE","OBJECT_ID":"2024-149CD","EPOCH":"2026-02-01T21:13:04.644192","MEAN_MOTION":14.89804151,"ECCENTRICITY":0.00022815,"INCLINATION":97.6947,"RA_OF_ASC_NODE":107.1333,"ARG_OF_PERICENTER":161.8945,"MEAN_ANOMALY":198.2355,"EPHEMERIS_TYPE":0,"CLASSIFICATION_TYPE":"U","NORAD_CAT_ID":60543,"ELEMENT_SET_NO":999,"REV_AT_EPOCH":7915,"BSTAR":0.00013067637,"MEAN_MOTION_DOT":1.2e-5,"MEAN_MOTION_DDOT":0},{"OBJECT_NAME":"CAPELLA-15 (ACADIA-5)","OBJECT_ID":"2024-149CE","EPOCH":"2026-02-01T18:07:29.212608","MEAN_MOTION":14.92428286,"ECCENTRICITY":0.00044102,"INCLINATION":97.6912,"RA_OF_ASC_NODE":108.9597,"ARG_OF_PERICENTER":169.5095,"MEAN_ANOMALY":190.6218,"EPHEMERIS_TYPE":0,"CLASSIFICATION_TYPE":"U","NORAD_CAT_ID":60544,"ELEMENT_SET_NO":999,"REV_AT_EPOCH":7965,"BSTAR":0.00035637608,"MEAN_MOTION_DOT":3.597e-5,"MEAN_MOTION_DDOT":0},{"OBJECT_NAME":"HAWK-10B","OBJECT_ID":"2024-149CF","EPOCH":"2026-02-01T18:00:14.005440","MEAN_MOTION":14.96011203,"ECCENTRICITY":0.00056103,"INCLINATION":97.6942,"RA_OF_ASC_NODE":110.4585,"ARG_OF_PERICENTER":171.4485,"MEAN_ANOMALY":188.6832,"EPHEMERIS_TYPE":0,"CLASSIFICATION_TYPE":"U","NORAD_CAT_ID":60545,"ELEMENT_SET_NO":999,"REV_AT_EPOCH":7973,"BSTAR":0.00020569606,"MEAN_MOTION_DOT":2.251e-5,"MEAN_MOTION_DDOT":0},{"OBJECT_NAME":"ICEYE-X39","OBJECT_ID":"2024-149CG","EPOCH":"2026-02-01T17:49:15.157056","MEAN_MOTION":14.98914259,"ECCENTRICITY":0.00048606,"INCLINATION":97.69,"RA_OF_ASC_NODE":111.5973,"ARG_OF_PERICENTER":167.9862,"MEAN_ANOMALY":192.1478,"EPHEMERIS_TYPE":0,"CLASSIFICATION_TYPE":"U","NORAD_CAT_ID":60546,"ELEMENT_SET_NO":999,"REV_AT_EPOCH":7982,"BSTAR":0.00027605585,"MEAN_MOTION_DOT":3.279e-5,"MEAN_MOTION_DDOT":0},{"OBJECT_NAME":"UMBRA-10","OBJECT_ID":"2024-149CH","EPOCH":"2026-02-01T19:23:49.449408","MEAN_MOTION":15.13307565,"ECCENTRICITY":0.00015698,"INCLINATION":97.7056,"RA_OF_ASC_NODE":118.1609,"ARG_OF_PERICENTER":97.6152,"MEAN_ANOMALY":262.5257,"EPHEMERIS_TYPE":0,"CLASSIFICATION_TYPE":"U","NORAD_CAT_ID":60547,"ELEMENT_SET_NO":999,"REV_AT_EPOCH":8022,"BSTAR":0.00087234153,"MEAN_MOTION_DOT":0.00015487,"MEAN_MOTION_DDOT":0},{"OBJECT_NAME":"ICEYE-X33","OBJECT_ID":"2024-149CJ","EPOCH":"2026-02-01T18:40:13.580544","MEAN_MOTION":15.00743676,"ECCENTRICITY":0.0004764,"INCLINATION":97.7074,"RA_OF_ASC_NODE":112.9184,"ARG_OF_PERICENTER":221.481,"MEAN_ANOMALY":138.6053,"EPHEMERIS_TYPE":0,"CLASSIFICATION_TYPE":"U","NORAD_CAT_ID":60548,"ELEMENT_SET_NO":999,"REV_AT_EPOCH":7989,"BSTAR":0.00034426918,"MEAN_MOTION_DOT":4.306e-5,"MEAN_MOTION_DDOT":0},{"OBJECT_NAME":"ICEYE-X40","OBJECT_ID":"2024-149CK","EPOCH":"2026-02-01T19:25:08.173632","MEAN_MOTION":14.97354083,"ECCENTRICITY":0.00052066,"INCLINATION":97.6923,"RA_OF_ASC_NODE":111.4724,"ARG_OF_PERICENTER":161.0754,"MEAN_ANOMALY":199.0663,"EPHEMERIS_TYPE":0,"CLASSIFICATION_TYPE":"U","NORAD_CAT_ID":60549,"ELEMENT_SET_NO":999,"REV_AT_EPOCH":7981,"BSTAR":0.00014639975,"MEAN_MOTION_DOT":1.642e-5,"MEAN_MOTION_DDOT":0},{"OBJECT_NAME":"SATELIOT_1","OBJECT_ID":"2024-149CL","EPOCH":"2026-02-01T17:45:57.904992","MEAN_MOTION":14.97409325,"ECCENTRICITY":0.00070944,"INCLINATION":97.6868,"RA_OF_ASC_NODE":110.891,"ARG_OF_PERICENTER":161.1629,"MEAN_ANOMALY":198.9857,"EPHEMERIS_TYPE":0,"CLASSIFICATION_TYPE":"U","NORAD_CAT_ID":60550,"ELEMENT_SET_NO":999,"REV_AT_EPOCH":7979,"BSTAR":0.00019382963,"MEAN_MOTION_DOT":2.197e-5,"MEAN_MOTION_DDOT":0},{"OBJECT_NAME":"BRO-14","OBJECT_ID":"2024-149CM","EPOCH":"2026-02-01T18:02:23.554464","MEAN_MOTION":14.95805542,"ECCENTRICITY":0.00068235,"INCLINATION":97.6997,"RA_OF_ASC_NODE":110.9291,"ARG_OF_PERICENTER":178.3615,"MEAN_ANOMALY":181.763,"EPHEMERIS_TYPE":0,"CLASSIFICATION_TYPE":"U","NORAD_CAT_ID":60551,"ELEMENT_SET_NO":999,"REV_AT_EPOCH":7974,"BSTAR":0.00017198792,"MEAN_MOTION_DOT":1.863e-5,"MEAN_MOTION_DDOT":0},{"OBJECT_NAME":"SATELIOT_3","OBJECT_ID":"2024-149CN","EPOCH":"2026-02-01T18:48:17.418816","MEAN_MOTION":14.97472256,"ECCENTRICITY":0.00053304,"INCLINATION":97.6957,"RA_OF_ASC_NODE":111.5992,"ARG_OF_PERICENTER":164.2027,"MEAN_ANOMALY":195.9362,"EPHEMERIS_TYPE":0,"CLASSIFICATION_TYPE":"U","NORAD_CAT_ID":60552,"ELEMENT_SET_NO":999,"REV_AT_EPOCH":7981,"BSTAR":0.00018649011,"MEAN_MOTION_DOT":2.114e-5,"MEAN_MOTION_DDOT":0},{"OBJECT_NAME":"BRO-15","OBJECT_ID":"2024-149CP","EPOCH":"2026-02-01T17:32:36.881088","MEAN_MOTION":14.95797891,"ECCENTRICITY":0.00081415,"INCLINATION":97.6928,"RA_OF_ASC_NODE":110.6378,"ARG_OF_PERICENTER":172.3878,"MEAN_ANOMALY":187.7469,"EPHEMERIS_TYPE":0,"CLASSIFICATION_TYPE":"U","NORAD_CAT_ID":60553,"ELEMENT_SET_NO":999,"REV_AT_EPOCH":7975,"BSTAR":8.0969219e-5,"MEAN_MOTION_DOT":8.47e-6,"MEAN_MOTION_DDOT":0}]
